ONEWEB-0527             
1 54642U 22166A   26159.16672454  .00041065  00000+0  10136+0 0  9991
2 54642  87.9248 245.7949 0002037 102.7685 255.3907 13.20201801  5286
ONEWEB-0528             
1 54643U 22166B   26159.16923110  .00000048  00000+0  85178-4 0  9999
2 54643  87.9255 245.7935 0001794 101.7764 258.3572 13.21668842170351
ONEWEB-0539             
1 54644U 22166C   26158.98037436  .00000053  00000+0  97311-4 0  9994
2 54644  87.9264 245.8025 0002089  93.4878 266.6495 13.21825622170328
ONEWEB-0540             
1 54645U 22166D   26158.98723640  .00000033  00000+0  48715-4 0  9996
2 54645  87.9258 245.8320 0002081  96.4712 263.6659 13.21826601170318
ONEWEB-0542             
1 54646U 22166E   26159.14185421  .00000032  00000+0  45544-4 0  9991
2 54646  87.9265 245.7688 0002112  91.4579 268.6797 13.21827153170348
ONEWEB-0545             
1 54647U 22166F   26158.95513483  .00000022  00000+0  20828-4 0  9990
2 54647  87.9254 245.8184 0002305  87.7961 272.3437 13.21827293170287
ONEWEB-0580             
1 54648U 22166G   26159.00559558 -.00000046  00000+0 -14267-3 0  9998
2 54648  87.9258 245.8083 0002371  92.8306 267.3100 13.21827053170334
ONEWEB-0582             
1 54649U 22166H   26158.74487339  .00000033  00000+0  48609-4 0  9998
2 54649  87.9257 245.8527 0002270  90.0457 270.0937 13.21826615170277
ONEWEB-0583             
1 54650U 22166J   26158.98373334  .00000031  00000+0  44462-4 0  9996
2 54650  87.9255 245.8287 0002037  97.1980 262.9385 13.21826484170316
ONEWEB-0584             
1 54651U 22166K   26159.15530032  .00000061  00000+0  11607-3 0  9994
2 54651  87.9254 245.7800 0002141  97.9474 262.1903 13.21825068170324
ONEWEB-0585             
1 54652U 22166L   26158.95177884 -.00000072  00000+0 -20516-3 0  9997
2 54652  87.9258 245.8073 0001973 103.8273 256.3081 13.21826304170302
ONEWEB-0586             
1 54653U 22166M   26158.96520704 -.00000140  00000+0 -37004-3 0  9998
2 54653  87.9257 245.8303 0002073  94.7973 265.3397 13.21824924170301
ONEWEB-0587             
1 54654U 22166N   26158.74821110  .00000054  00000+0  99614-4 0  9998
2 54654  87.9268 245.8460 0001834 109.1555 250.9778 13.21828177170430
ONEWEB-0589             
1 54655U 22166P   26158.96184558 -.00000104  00000+0 -28279-3 0  9997
2 54655  87.9253 245.8170 0002677  84.9511 275.1929 13.21823319170329
ONEWEB-0590             
1 54656U 22166Q   26158.98696213  .00000047  00000+0  81665-4 0  9999
2 54656  87.9264 245.8013 0002468 105.5406 254.6001 13.21827353170313
ONEWEB-0591             
1 54657U 22166R   26158.99888029 -.00000008  00000+0 -50178-4 0  9993
2 54657  87.9254 245.8143 0002129 100.0576 260.0798 13.21825805170346
ONEWEB-0592             
1 54658U 22166S   26159.00223870 -.00000133  00000+0 -35259-3 0  9995
2 54658  87.9266 245.7908 0002087  99.2713 260.8657 13.21826407170221
ONEWEB-0593             
1 54659U 22166T   26159.17548257  .00000028  00000+0  37468-4 0  9999
2 54659  87.9256 245.7686 0002004  94.7312 265.4051 13.21828130170356
ONEWEB-0594             
1 54660U 22166U   26158.74148285  .00000026  00000+0  31358-4 0  9990
2 54660  87.9256 245.8718 0002001 101.4561 258.6798 13.21824101170316
ONEWEB-0595             
1 54661U 22166V   26159.17212914  .00000030  00000+0  41517-4 0  9993
2 54661  87.9264 245.7659 0002017 105.8854 254.2502 13.21827113170343
ONEWEB-0596             
1 54662U 22166W   26158.69272663  .00000001  00000+0 -29168-4 0  9994
2 54662  87.9257 245.8732 0002003 102.1351 258.0007 13.21826239170289
ONEWEB-0597             
1 54663U 22166X   26158.97700829 -.00000001  00000+0 -33299-4 0  9997
2 54663  87.9254 245.8201 0002056  96.2635 263.8733 13.21825470170325
ONEWEB-0600             
1 54664U 22166Y   26158.95847902  .00000003  00000+0 -23983-4 0  9990
2 54664  87.9255 245.8151 0001872  95.5529 264.5819 13.21827208170290
ONEWEB-0601             
1 54665U 22166Z   26158.95008102  .00000077  00000+0  15535-3 0  9995
2 54665  87.9250 245.8324 0002134  93.4683 266.6695 13.21825596170482
ONEWEB-0602             
1 54666U 22166AA  26159.14269043  .00000072  00000+0  14374-3 0  9996
2 54666  87.9254 245.8006 0001852  93.1774 266.9572 13.21825951170356
ONEWEB-0603             
1 54667U 22166AB  26158.99719542  .00000047  00000+0  82624-4 0  9999
2 54667  87.9265 245.7856 0002030  96.4130 263.7235 13.21826306170268
ONEWEB-0604             
1 54668U 22166AC  26158.98541410 -.00000001  00000+0 -34278-4 0  9990
2 54668  87.9266 245.8036 0001981 101.4564 258.6793 13.21826908170229
ONEWEB-0605             
1 54669U 22166AD  26158.97869462  .00000092  00000+0  19125-3 0  9991
2 54669  87.9257 245.8191 0002636  95.4364 264.7071 13.21825524170297
ONEWEB-0606             
1 54670U 22166AE  26159.00055900 -.00000070  00000+0 -20203-3 0  9999
2 54670  87.9256 245.8272 0001941 104.1325 256.0025 13.21825639170358
ONEWEB-0607             
1 54671U 22166AF  26158.96689051 -.00000150  00000+0 -39576-3 0  9996
2 54671  87.9263 245.8043 0002046  94.9428 265.1939 13.21824079170329
ONEWEB-0608             
1 54672U 22166AG  26158.74654808  .00000025  00000+0  28243-4 0  9994
2 54672  87.9270 245.8445 0002433  90.5433 269.5979 13.21827518170303
