OBJECT_NAME,OBJECT_ID,EPOCH,MEAN_MOTION,ECCENTRICITY,INCLINATION,RA_OF_ASC_NODE,ARG_OF_PERICENTER,MEAN_ANOMALY,EPHEMERIS_TYPE,CLASSIFICATION_TYPE,NORAD_CAT_ID,ELEMENT_SET_NO,REV_AT_EPOCH,BSTAR,MEAN_MOTION_DOT,MEAN_MOTION_DDOT
ONEWEB-0527,2022-166A,2026-06-08T04:00:05.000256,13.20201801,.0002037,87.9248,245.7949,102.7685,255.3907,0,U,54642,999,528,.10136E+0,.41065E-3,0
ONEWEB-0528,2022-166B,2026-06-08T04:03:41.567040,13.21668842,.0001794,87.9255,245.7935,101.7764,258.3572,0,U,54643,999,17035,.85178E-4,.48E-6,0
ONEWEB-0539,2022-166C,2026-06-07T23:31:44.344704,13.21825622,.0002089,87.9264,245.8025,93.4878,266.6495,0,U,54644,999,17032,.97311E-4,.53E-6,0
ONEWEB-0540,2022-166D,2026-06-07T23:41:37.224960,13.21826601,.0002081,87.9258,245.8320,96.4712,263.6659,0,U,54645,999,17031,.48715E-4,.33E-6,0
ONEWEB-0542,2022-166E,2026-06-08T03:24:16.203744,13.21827153,.0002112,87.9265,245.7688,91.4579,268.6797,0,U,54646,999,17034,.45544E-4,.32E-6,0
ONEWEB-0545,2022-166F,2026-06-07T22:55:23.649312,13.21827293,.0002305,87.9254,245.8184,87.7961,272.3437,0,U,54647,999,17028,.20828E-4,.22E-6,0
ONEWEB-0580,2022-166G,2026-06-08T00:08:03.458112,13.21827053,.0002371,87.9258,245.8083,92.8306,267.3100,0,U,54648,999,17033,-.14267E-3,-.46E-6,0
ONEWEB-0582,2022-166H,2026-06-07T17:52:37.060896,13.21826615,.000227,87.9257,245.8527,90.0457,270.0937,0,U,54649,999,17027,.48609E-4,.33E-6,0
ONEWEB-0583,2022-166J,2026-06-07T23:36:34.560576,13.21826484,.0002037,87.9255,245.8287,97.1980,262.9385,0,U,54650,999,17031,.44462E-4,.31E-6,0
ONEWEB-0584,2022-166K,2026-06-08T03:43:37.947648,13.21825068,.0002141,87.9254,245.7800,97.9474,262.1903,0,U,54651,999,17032,.11607E-3,.61E-6,0
ONEWEB-0585,2022-166L,2026-06-07T22:50:33.691776,13.21826304,.0001973,87.9258,245.8073,103.8273,256.3081,0,U,54652,999,17030,-.20516E-3,-.72E-6,0
ONEWEB-0586,2022-166M,2026-06-07T23:09:53.888256,13.21824924,.0002073,87.9257,245.8303,94.7973,265.3397,0,U,54653,999,17030,-.37004E-3,-.14E-5,0
ONEWEB-0587,2022-166N,2026-06-07T17:57:25.439040,13.21828177,.0001834,87.9268,245.8460,109.1555,250.9778,0,U,54654,999,17043,.99614E-4,.54E-6,0
ONEWEB-0589,2022-166P,2026-06-07T23:05:03.458112,13.21823319,.0002677,87.9253,245.8170,84.9511,275.1929,0,U,54655,999,17032,-.28279E-3,-.104E-5,0
ONEWEB-0590,2022-166Q,2026-06-07T23:41:13.528032,13.21827353,.0002468,87.9264,245.8013,105.5406,254.6001,0,U,54656,999,17031,.81665E-4,.47E-6,0
ONEWEB-0591,2022-166R,2026-06-07T23:58:23.257056,13.21825805,.0002129,87.9254,245.8143,100.0576,260.0798,0,U,54657,999,17034,-.50178E-4,-.8E-7,0
ONEWEB-0592,2022-166S,2026-06-08T00:03:13.423680,13.21826407,.0002087,87.9266,245.7908,99.2713,260.8657,0,U,54658,999,17022,-.35259E-3,-.133E-5,0
ONEWEB-0593,2022-166T,2026-06-08T04:12:41.694048,13.21828130,.0002004,87.9256,245.7686,94.7312,265.4051,0,U,54659,999,17035,.37468E-4,.28E-6,0
ONEWEB-0594,2022-166U,2026-06-07T17:47:44.118240,13.21824101,.0002001,87.9256,245.8718,101.4561,258.6798,0,U,54660,999,17031,.31358E-4,.26E-6,0
ONEWEB-0595,2022-166V,2026-06-08T04:07:51.957696,13.21827113,.0002017,87.9264,245.7659,105.8854,254.2502,0,U,54661,999,17034,.41517E-4,.3E-6,0
ONEWEB-0596,2022-166W,2026-06-07T16:37:31.580832,13.21826239,.0002003,87.9257,245.8732,102.1351,258.0007,0,U,54662,999,17028,-.29168E-4,.1E-7,0
ONEWEB-0597,2022-166X,2026-06-07T23:26:53.516256,13.21825470,.0002056,87.9254,245.8201,96.2635,263.8733,0,U,54663,999,17032,-.33299E-4,-.1E-7,0
ONEWEB-0600,2022-166Y,2026-06-07T23:00:12.587328,13.21827208,.0001872,87.9255,245.8151,95.5529,264.5819,0,U,54664,999,17029,-.23983E-4,.3E-7,0
ONEWEB-0601,2022-166Z,2026-06-07T22:48:07.000128,13.21825596,.0002134,87.9250,245.8324,93.4683,266.6695,0,U,54665,999,17048,.15535E-3,.77E-6,0
ONEWEB-0602,2022-166AA,2026-06-08T03:25:28.453152,13.21825951,.0001852,87.9254,245.8006,93.1774,266.9572,0,U,54666,999,17035,.14374E-3,.72E-6,0
ONEWEB-0603,2022-166AB,2026-06-07T23:55:57.684288,13.21826306,.000203,87.9265,245.7856,96.4130,263.7235,0,U,54667,999,17026,.82624E-4,.47E-6,0
ONEWEB-0604,2022-166AC,2026-06-07T23:38:59.778240,13.21826908,.0001981,87.9266,245.8036,101.4564,258.6793,0,U,54668,999,17022,-.34278E-4,-.1E-7,0
ONEWEB-0605,2022-166AD,2026-06-07T23:29:19.215168,13.21825524,.0002636,87.9257,245.8191,95.4364,264.7071,0,U,54669,999,17029,.19125E-3,.92E-6,0
ONEWEB-0606,2022-166AE,2026-06-08T00:00:48.297600,13.21825639,.0001941,87.9256,245.8272,104.1325,256.0025,0,U,54670,999,17035,-.20203E-3,-.7E-6,0
ONEWEB-0607,2022-166AF,2026-06-07T23:12:19.340064,13.21824079,.0002046,87.9263,245.8043,94.9428,265.1939,0,U,54671,999,17032,-.39576E-3,-.15E-5,0
ONEWEB-0608,2022-166AG,2026-06-07T17:55:01.754112,13.21827518,.0002433,87.9270,245.8445,90.5433,269.5979,0,U,54672,999,17030,.28243E-4,.25E-6,0
